{"type": "FeatureCollection", "features": [ {"type": "Feature", "properties": {"norad_id": 30331, "name": "FENGYUN 1C DEB", "group": "fengyun-1c-debris", "lat": -14.227480020833838, "lon": -170.11278440160373, "alt_km": 972.4579987733287, "timestamp": "2025-12-03T08:58:46.277135+00:00", "meta": {"OBJECT_NAME": "FENGYUN 1C DEB", "OBJECT_ID": "1999-025AAS", "EPOCH": "2025-12-03T01:25:54.427872", "MEAN_MOTION": 13.97812068, "ECCENTRICITY": 0.0097074, "INCLINATION": 98.9583, "RA_OF_ASC_NODE": 11.8725, "ARG_OF_PERICENTER": 34.6643, "MEAN_ANOMALY": 17.5731, "EPHEMERIS_TYPE": 0, "CLASSIFICATION_TYPE": "U", "NORAD_CAT_ID": 30331, "ELEMENT_SET_NO": 999, "REV_AT_EPOCH": 95984, "BSTAR": 0.00056466, "MEAN_MOTION_DOT": 7.89e-06, "MEAN_MOTION_DDOT": 0}, "tle": {"line1": "1 30331U 99025AAS 25337.05965773  .00000789  00000+0  56466-3 0  9990", "line2": "2 30331  98.9583  11.8725 0097074  34.6643  17.5731 13.97812068959845"}}, "geometry": {"type": "Point", "coordinates": [-170.11278440160373, -14.227480020833838]}}, {"type": "Feature", "properties": {"norad_id": 30332, "name": "FENGYUN 1C DEB", "group": "fengyun-1c-debris", "lat": -28.254508566322627, "lon": 123.41796294938071, "alt_km": 959.3741259255075, "timestamp": "2025-12-03T08:58:46.277146+00:00", "meta": {"OBJECT_NAME": "FENGYUN 1C DEB", "OBJECT_ID": "1999-025AAT", "EPOCH": "2025-12-03T04:35:46.788864", "MEAN_MOTION": 13.76697034, "ECCENTRICITY": 0.0177939, "INCLINATION": 99.7141, "RA_OF_ASC_NODE": 308.5134, "ARG_OF_PERICENTER": 127.7186, "MEAN_ANOMALY": 254.1931, "EPHEMERIS_TYPE": 0, "CLASSIFICATION_TYPE": "U", "NORAD_CAT_ID": 30332, "ELEMENT_SET_NO": 999, "REV_AT_EPOCH": 94584, "BSTAR": 0.00044303, "MEAN_MOTION_DOT": 4.43e-06, "MEAN_MOTION_DDOT": 0}, "tle": {"line1": "1 30332U 99025AAT 25337.19151376  .00000443  00000+0  44303-3 0  9996", "line2": "2 30332  99.7141 308.5134 0177939 127.7186 254.1931 13.76697034945847"}}, "geometry": {"type": "Point", "coordinates": [123.41796294938071, -28.254508566322627]}}, {"type": "Feature", "properties": {"norad_id": 30334, "name": "FENGYUN 1C DEB", "group": "fengyun-1c-debris", "lat": -10.519355902844685, "lon": 78.88760536120976, "alt_km": 824.0575335189378, "timestamp": "2025-12-03T08:58:46.277156+00:00", "meta": {"OBJECT_NAME": "FENGYUN 1C DEB", "OBJECT_ID": "1999-025AAV", "EPOCH": "2025-12-02T05:34:13.034784", "MEAN_MOTION": 13.92325375, "ECCENTRICITY": 0.0144883, "INCLINATION": 99.0216, "RA_OF_ASC_NODE": 76.0851, "ARG_OF_PERICENTER": 10.8929, "MEAN_ANOMALY": 17.8066, "EPHEMERIS_TYPE": 0, "CLASSIFICATION_TYPE": "U", "NORAD_CAT_ID": 30334, "ELEMENT_SET_NO": 999, "REV_AT_EPOCH": 95075, "BSTAR": 0.0014213, "MEAN_MOTION_DOT": 1.946e-05, "MEAN_MOTION_DDOT": 0}, "tle": {"line1": "1 30334U 99025AAV 25336.23209531  .00001946  00000+0  14213-2 0  9994", "line2": "2 30334  99.0216  76.0851 0144883  10.8929  17.8066 13.92325375950750"}}, "geometry": {"type": "Point", "coordinates": [78.88760536120976, -10.519355902844685]}}, {"type": "Feature", "properties": {"norad_id": 30335, "name": "FENGYUN 1C DEB", "group": "fengyun-1c-debris", "lat": -75.30222119342615, "lon": 112.19154364233941, "alt_km": 912.8658304509017, "timestamp": "2025-12-03T08:58:46.277166+00:00", "meta": {"OBJECT_NAME": "FENGYUN 1C DEB", "OBJECT_ID": "1999-025AAW", "EPOCH": "2025-12-02T23:30:05.554080", "MEAN_MOTION": 14.01355206, "ECCENTRICITY": 0.013239, "INCLINATION": 98.9048, "RA_OF_ASC_NODE": 328.5118, "ARG_OF_PERICENTER": 158.7332, "MEAN_ANOMALY": 266.8048, "EPHEMERIS_TYPE": 0, "CLASSIFICATION_TYPE": "U", "NORAD_CAT_ID": 30335, "ELEMENT_SET_NO": 999, "REV_AT_EPOCH": 96454, "BSTAR": 0.00018825, "MEAN_MOTION_DOT": 2.64e-06, "MEAN_MOTION_DDOT": 0}, "tle": {"line1": "1 30335U 99025AAW 25336.97923095  .00000264  00000+0  18825-3 0  9990", "line2": "2 30335  98.9048 328.5118 0132390 158.7332 266.8048 14.01355206964548"}}, "geometry": {"type": "Point", "coordinates": [112.19154364233941, -75.30222119342615]}}, {"type": "Feature", "properties": {"norad_id": 30336, "name": "FENGYUN 1C DEB", "group": "fengyun-1c-debris", "lat": -37.32184603446613, "lon": 171.9707871489184, "alt_km": 865.8313112706055, "timestamp": "2025-12-03T08:58:46.277176+00:00", "meta": {"OBJECT_NAME": "FENGYUN 1C DEB", "OBJECT_ID": "1999-025AAX", "EPOCH": "2025-12-02T23:47:21.598080", "MEAN_MOTION": 14.19282328, "ECCENTRICITY": 0.0044045, "INCLINATION": 98.6015, "RA_OF_ASC_NODE": 358.2255, "ARG_OF_PERICENTER": 36.5791, "MEAN_ANOMALY": 25.7472, "EPHEMERIS_TYPE": 0, "CLASSIFICATION_TYPE": "U", "NORAD_CAT_ID": 30336, "ELEMENT_SET_NO": 999, "REV_AT_EPOCH": 97464, "BSTAR": 0.0004384, "MEAN_MOTION_DOT": 8.86e-06, "MEAN_MOTION_DDOT": 0}, "tle": {"line1": "1 30336U 99025AAX 25336.99122220  .00000886  00000+0  43840-3 0  9999", "line2": "2 30336  98.6015 358.2255 0044045  36.5791  25.7472 14.19282328974641"}}, "geometry": {"type": "Point", "coordinates": [171.9707871489184, -37.32184603446613]}}, {"type": "Feature", "properties": {"norad_id": 30338, "name": "FENGYUN 1C DEB", "group": "fengyun-1c-debris", "lat": 14.356036784367593, "lon": 44.889150859527724, "alt_km": 905.5150970952327, "timestamp": "2025-12-03T08:58:46.277186+00:00", "meta": {"OBJECT_NAME": "FENGYUN 1C DEB", "OBJECT_ID": "1999-025AAZ", "EPOCH": "2025-12-03T04:04:20.230176", "MEAN_MOTION": 14.47316519, "ECCENTRICITY": 0.0272153, "INCLINATION": 98.461, "RA_OF_ASC_NODE": 46.8678, "ARG_OF_PERICENTER": 222.9857, "MEAN_ANOMALY": 165.4361, "EPHEMERIS_TYPE": 0, "CLASSIFICATION_TYPE": "U", "NORAD_CAT_ID": 30338, "ELEMENT_SET_NO": 999, "REV_AT_EPOCH": 98006, "BSTAR": 0.0017322, "MEAN_MOTION_DOT": 0.00010071, "MEAN_MOTION_DDOT": 0}, "tle": {"line1": "1 30338U 99025AAZ 25337.16967859  .00010071  00000+0  17322-2 0  9998", "line2": "2 30338  98.4610  46.8678 0272153 222.9857 165.4361 14.47316519980061"}}, "geometry": {"type": "Point", "coordinates": [44.889150859527724, 14.356036784367593]}}, {"type": "Feature", "properties": {"norad_id": 30339, "name": "FENGYUN 1C DEB", "group": "fengyun-1c-debris", "lat": -12.742512739076874, "lon": -98.65927020485698, "alt_km": 766.9691810943959, "timestamp": "2025-12-03T08:58:46.277196+00:00", "meta": {"OBJECT_NAME": "FENGYUN 1C DEB", "OBJECT_ID": "1999-025ABA", "EPOCH": "2025-12-03T02:13:57.919008", "MEAN_MOTION": 14.37904008, "ECCENTRICITY": 0.0022195, "INCLINATION": 98.9744, "RA_OF_ASC_NODE": 83.0953, "ARG_OF_PERICENTER": 113.9259, "MEAN_ANOMALY": 64.2528, "EPHEMERIS_TYPE": 0, "CLASSIFICATION_TYPE": "U", "NORAD_CAT_ID": 30339, "ELEMENT_SET_NO": 999, "REV_AT_EPOCH": 97288, "BSTAR": 0.0036451, "MEAN_MOTION_DOT": 0.00011005, "MEAN_MOTION_DDOT": 0}, "tle": {"line1": "1 30339U 99025ABA 25337.09303147  .00011005  00000+0  36451-2 0  9997", "line2": "2 30339  98.9744  83.0953 0022195 113.9259  64.2528 14.37904008972885"}}, "geometry": {"type": "Point", "coordinates": [-98.65927020485698, -12.742512739076874]}}, {"type": "Feature", "properties": {"norad_id": 30340, "name": "FENGYUN 1C DEB", "group": "fengyun-1c-debris", "lat": 73.88213976529094, "lon": -112.54983525340124, "alt_km": 812.7121905267804, "timestamp": "2025-12-03T08:58:46.277206+00:00", "meta": {"OBJECT_NAME": "FENGYUN 1C DEB", "OBJECT_ID": "1999-025ABB", "EPOCH": "2025-12-03T03:26:46.624416", "MEAN_MOTION": 14.04592638, "ECCENTRICITY": 0.0145859, "INCLINATION": 99.003, "RA_OF_ASC_NODE": 33.9488, "ARG_OF_PERICENTER": 161.4363, "MEAN_ANOMALY": 218.2102, "EPHEMERIS_TYPE": 0, "CLASSIFICATION_TYPE": "U", "NORAD_CAT_ID": 30340, "ELEMENT_SET_NO": 999, "REV_AT_EPOCH": 96646, "BSTAR": 7.1464e-05, "MEAN_MOTION_DOT": 8.2e-07, "MEAN_MOTION_DDOT": 0}, "tle": {"line1": "1 30340U 99025ABB 25337.14359519  .00000082  00000+0  71464-4 0  9997", "line2": "2 30340  99.0030  33.9488 0145859 161.4363 218.2102 14.04592638966463"}}, "geometry": {"type": "Point", "coordinates": [-112.54983525340124, 73.88213976529094]}}, {"type": "Feature", "properties": {"norad_id": 30341, "name": "FENGYUN 1C DEB", "group": "fengyun-1c-debris", "lat": 40.691535609253776, "lon": -143.23148551181734, "alt_km": 749.6072211948476, "timestamp": "2025-12-03T08:58:46.277216+00:00", "meta": {"OBJECT_NAME": "FENGYUN 1C DEB", "OBJECT_ID": "1999-025ABC", "EPOCH": "2025-12-02T16:17:47.901696", "MEAN_MOTION": 14.33823701, "ECCENTRICITY": 0.00491054, "INCLINATION": 99.2195, "RA_OF_ASC_NODE": 224.0564, "ARG_OF_PERICENTER": 85.7836, "MEAN_ANOMALY": 329.9693, "EPHEMERIS_TYPE": 0, "CLASSIFICATION_TYPE": "U", "NORAD_CAT_ID": 30341, "ELEMENT_SET_NO": 999, "REV_AT_EPOCH": 96937, "BSTAR": 0.0036921951, "MEAN_MOTION_DOT": 0.00010378, "MEAN_MOTION_DDOT": 0}, "tle": {"line1": "1 30341U 99025ABC 25336.67902664  .00010378  00000+0  36922-2 0  9997", "line2": "2 30341  99.2195 224.0564 0049105  85.7836 329.9693 14.33823701969374"}}, "geometry": {"type": "Point", "coordinates": [-143.23148551181734, 40.691535609253776]}}, {"type": "Feature", "properties": {"norad_id": 30342, "name": "FENGYUN 1C DEB", "group": "fengyun-1c-debris", "lat": -48.88456489036062, "lon": -35.7696348178574, "alt_km": 953.8505178797295, "timestamp": "2025-12-03T08:58:46.277227+00:00", "meta": {"OBJECT_NAME": "FENGYUN 1C DEB", "OBJECT_ID": "1999-025ABD", "EPOCH": "2025-12-03T01:32:12.312096", "MEAN_MOTION": 13.8001988, "ECCENTRICITY": 0.0168343, "INCLINATION": 100.1958, "RA_OF_ASC_NODE": 155.7952, "ARG_OF_PERICENTER": 147.4795, "MEAN_ANOMALY": 340.5997, "EPHEMERIS_TYPE": 0, "CLASSIFICATION_TYPE": "U", "NORAD_CAT_ID": 30342, "ELEMENT_SET_NO": 999, "REV_AT_EPOCH": 94755, "BSTAR": 0.00088757, "MEAN_MOTION_DOT": 9.76e-06, "MEAN_MOTION_DDOT": 0}, "tle": {"line1": "1 30342U 99025ABD 25337.06403139  .00000976  00000+0  88757-3 0  9992", "line2": "2 30342 100.1958 155.7952 0168343 147.4795 340.5997 13.80019880947559"}}, "geometry": {"type": "Point", "coordinates": [-35.7696348178574, -48.88456489036062]}}]}